ALOS-4 (DAICHI-4)       
1 60182U 24123A   24208.22137113  .00003396  00000+0  46151-3 0  9995
2 60182  97.9215 304.3256 0001563 112.4459 247.6919 14.79461674  3714
